*******************************************************************************
Ephemeris / WWW_USER Mon Mar 10 07:23:06 2025 Pasadena, USA      / Horizons    
*******************************************************************************
Target body name: (2018 PC20)                     {source: JPL#4}
Center body name: Earth (399)                     {source: DE441}
Center-site name: Mauna Kea
*******************************************************************************
Start time      : A.D. 2018-Sep-04 04:44:00.0000 UT      
Stop  time      : A.D. 2018-Sep-04 15:57:00.0000 UT      
Step-size       : 1 minutes
*******************************************************************************
Target pole/equ : undefined
Target radii    : undefined                                                    
Center geodetic : 204.5278, 19.8260847, 4.21024   {E-lon(deg),Lat(deg),Alt(km)}
Center cylindric: 204.5278, 6006.35451, 2151.0229 {E-lon(deg),Dxy(km),Dz(km)}
Center pole/equ : ITRF93                          {East-longitude positive}
Center radii    : 6378.137, 6378.137, 6356.752 km {Equator_a, b, pole_c}       
Target primary  : Sun
Vis. interferer : MOON (R_eq= 1737.400) km        {source: DE441}
Rel. light bend : Sun                             {source: DE441}
Rel. lght bnd GM: 1.3271E+11 km^3/s^2                                          
Small-body perts: Yes                             {source: SB441-N16}
Atmos refraction: NO (AIRLESS)
RA format       : HMS
Time format     : CAL 
Calendar mode   : Mixed Julian/Gregorian
RTS-only print  : NO       
EOP file        : eop.250307.p250603                                           
EOP coverage    : DATA-BASED 1962-JAN-20 TO 2025-MAR-07. PREDICTS-> 2025-JUN-02
Units conversion: 1 au= 149597870.700 km, c= 299792.458 km/s, 1 day= 86400.0 s 
Table cut-offs 1: Elevation (-90.0deg=NO ),Airmass (>38.000=NO), Daylight (YES)
Table cut-offs 2: Solar elongation (  0.0,180.0=NO ),Local Hour Angle( 0.0=NO )
Table cut-offs 3: RA/DEC angular rate (     0.0=NO )                           
*******************************************************************************
Initial IAU76/J2000 heliocentric ecliptic osculating elements (au, days, deg.):
  EPOCH=  2458343.5 ! 2018-Aug-13.00 (TDB)         Residual RMS= .24519        
   EC= .404352607301711    QR= 1.018354806317198   TP= 2458318.6524357731      
   OM= 139.299704166656    W=  153.5303944744985   IN= 8.986086735514593       
  Equivalent ICRF heliocentric cartesian coordinates (au, au/d):
   X= 8.116079301925467E-01  Y=-6.140581064636024E-01  Z=-2.698058679324596E-01
  VX= 1.436448164656351E-02 VY= 1.329561442287599E-02 VZ= 2.429594529488231E-03
Asteroid physical parameters (km, seconds, rotational period in hours):        
   GM= n.a.                RAD= n.a.               ROTPER= n.a.                
   H= 25.2                 G= .150                 B-V= n.a.                   
                           ALBEDO= n.a.            STYP= n.a.                  
*******************************************************************************
 Date__(UT)__HR:MN     R.A._________(ICRF)_________DEC
******************************************************
$$SOE
 2018-Sep-04 04:44 C   00 12 59.897017 -30 55 46.23320
 2018-Sep-04 04:45 C   00 12 59.941256 -30 55 46.53832
 2018-Sep-04 04:46 C   00 12 59.985407 -30 55 46.84354
 2018-Sep-04 04:47 C   00 13 00.029471 -30 55 47.14887
 2018-Sep-04 04:48 C   00 13 00.073446 -30 55 47.45430
 2018-Sep-04 04:49 C   00 13 00.117334 -30 55 47.75982
 2018-Sep-04 04:50 C   00 13 00.161133 -30 55 48.06544
 2018-Sep-04 04:51 C   00 13 00.204844 -30 55 48.37115
 2018-Sep-04 04:52 C   00 13 00.248467 -30 55 48.67696
 2018-Sep-04 04:53 C   00 13 00.292002 -30 55 48.98285
 2018-Sep-04 04:54 C   00 13 00.335448 -30 55 49.28883
 2018-Sep-04 04:55 C   00 13 00.378806 -30 55 49.59489
 2018-Sep-04 04:56 C   00 13 00.422076 -30 55 49.90103
 2018-Sep-04 04:57 C   00 13 00.465256 -30 55 50.20725
 2018-Sep-04 04:58 N   00 13 00.508348 -30 55 50.51355
 2018-Sep-04 04:59 N   00 13 00.551352 -30 55 50.81992
 2018-Sep-04 05:00 N   00 13 00.594266 -30 55 51.12636
 2018-Sep-04 05:01 N   00 13 00.637092 -30 55 51.43287
 2018-Sep-04 05:02 N   00 13 00.679829 -30 55 51.73945
 2018-Sep-04 05:03 N   00 13 00.722476 -30 55 52.04609
 2018-Sep-04 05:04 N   00 13 00.765035 -30 55 52.35279
 2018-Sep-04 05:05 N   00 13 00.807504 -30 55 52.65955
 2018-Sep-04 05:06 N   00 13 00.849885 -30 55 52.96637
 2018-Sep-04 05:07 N   00 13 00.892176 -30 55 53.27324
 2018-Sep-04 05:08 N   00 13 00.934378 -30 55 53.58016
 2018-Sep-04 05:09 N   00 13 00.976490 -30 55 53.88713
 2018-Sep-04 05:10 N   00 13 01.018513 -30 55 54.19415
 2018-Sep-04 05:11 N   00 13 01.060447 -30 55 54.50121
 2018-Sep-04 05:12 N   00 13 01.102291 -30 55 54.80831
 2018-Sep-04 05:13 N   00 13 01.144046 -30 55 55.11545
 2018-Sep-04 05:14 N   00 13 01.185711 -30 55 55.42263
 2018-Sep-04 05:15 N   00 13 01.227286 -30 55 55.72985
 2018-Sep-04 05:16 N   00 13 01.268772 -30 55 56.03709
 2018-Sep-04 05:17 N   00 13 01.310168 -30 55 56.34436
 2018-Sep-04 05:18 N   00 13 01.351475 -30 55 56.65166
 2018-Sep-04 05:19 N   00 13 01.392691 -30 55 56.95899
 2018-Sep-04 05:20 N   00 13 01.433818 -30 55 57.26633
 2018-Sep-04 05:21 N   00 13 01.474855 -30 55 57.57370
 2018-Sep-04 05:22 N   00 13 01.515802 -30 55 57.88108
 2018-Sep-04 05:23 N   00 13 01.556660 -30 55 58.18848
 2018-Sep-04 05:24 A   00 13 01.597427 -30 55 58.49588
 2018-Sep-04 05:25 A   00 13 01.638105 -30 55 58.80330
 2018-Sep-04 05:26 A   00 13 01.678692 -30 55 59.11072
 2018-Sep-04 05:27 A   00 13 01.719190 -30 55 59.41815
 2018-Sep-04 05:28 A   00 13 01.759597 -30 55 59.72558
 2018-Sep-04 05:29 A   00 13 01.799914 -30 56 00.03301
 2018-Sep-04 05:30 A   00 13 01.840142 -30 56 00.34044
 2018-Sep-04 05:31 A   00 13 01.880279 -30 56 00.64786
 2018-Sep-04 05:32 A   00 13 01.920327 -30 56 00.95527
 2018-Sep-04 05:33 A   00 13 01.960284 -30 56 01.26267
 2018-Sep-04 05:34 A   00 13 02.000151 -30 56 01.57006
 2018-Sep-04 05:35 A   00 13 02.039928 -30 56 01.87743
 2018-Sep-04 05:36 A   00 13 02.079615 -30 56 02.18479
 2018-Sep-04 05:37 A   00 13 02.119212 -30 56 02.49212
 2018-Sep-04 05:38 A   00 13 02.158718 -30 56 02.79943
 2018-Sep-04 05:39 A   00 13 02.198135 -30 56 03.10672
 2018-Sep-04 05:40 A   00 13 02.237461 -30 56 03.41398
 2018-Sep-04 05:41 A   00 13 02.276698 -30 56 03.72120
 2018-Sep-04 05:42 A   00 13 02.315844 -30 56 04.02840
 2018-Sep-04 05:43 A   00 13 02.354900 -30 56 04.33556
 2018-Sep-04 05:44 A   00 13 02.393866 -30 56 04.64268
 2018-Sep-04 05:45 A   00 13 02.432742 -30 56 04.94976
 2018-Sep-04 05:46 A   00 13 02.471527 -30 56 05.25679
 2018-Sep-04 05:47 A   00 13 02.510223 -30 56 05.56378
 2018-Sep-04 05:48 A   00 13 02.548829 -30 56 05.87073
 2018-Sep-04 05:49 A   00 13 02.587344 -30 56 06.17762
 2018-Sep-04 05:50     00 13 02.625770 -30 56 06.48446
 2018-Sep-04 05:51     00 13 02.664105 -30 56 06.79124
 2018-Sep-04 05:52     00 13 02.702351 -30 56 07.09797
 2018-Sep-04 05:53     00 13 02.740506 -30 56 07.40464
 2018-Sep-04 05:54     00 13 02.778572 -30 56 07.71124
 2018-Sep-04 05:55     00 13 02.816548 -30 56 08.01778
 2018-Sep-04 05:56     00 13 02.854433 -30 56 08.32425
 2018-Sep-04 05:57     00 13 02.892229 -30 56 08.63065
 2018-Sep-04 05:58     00 13 02.929935 -30 56 08.93697
 2018-Sep-04 05:59     00 13 02.967551 -30 56 09.24322
 2018-Sep-04 06:00     00 13 03.005078 -30 56 09.54940
 2018-Sep-04 06:01     00 13 03.042514 -30 56 09.85549
 2018-Sep-04 06:02     00 13 03.079861 -30 56 10.16150
 2018-Sep-04 06:03     00 13 03.117118 -30 56 10.46742
 2018-Sep-04 06:04     00 13 03.154286 -30 56 10.77326
 2018-Sep-04 06:05     00 13 03.191364 -30 56 11.07901
 2018-Sep-04 06:06     00 13 03.228352 -30 56 11.38466
 2018-Sep-04 06:07     00 13 03.265251 -30 56 11.69022
 2018-Sep-04 06:08     00 13 03.302061 -30 56 11.99568
 2018-Sep-04 06:09     00 13 03.338781 -30 56 12.30104
 2018-Sep-04 06:10     00 13 03.375411 -30 56 12.60630
 2018-Sep-04 06:11     00 13 03.411953 -30 56 12.91145
 2018-Sep-04 06:12     00 13 03.448405 -30 56 13.21650
 2018-Sep-04 06:13     00 13 03.484768 -30 56 13.52143
 2018-Sep-04 06:14     00 13 03.521041 -30 56 13.82626
 2018-Sep-04 06:15     00 13 03.557226 -30 56 14.13097
 2018-Sep-04 06:16     00 13 03.593321 -30 56 14.43556
 2018-Sep-04 06:17     00 13 03.629328 -30 56 14.74003
 2018-Sep-04 06:18     00 13 03.665246 -30 56 15.04438
 2018-Sep-04 06:19  r  00 13 03.701074 -30 56 15.34860
 2018-Sep-04 06:20     00 13 03.736814 -30 56 15.65270
 2018-Sep-04 06:21     00 13 03.772465 -30 56 15.95667
 2018-Sep-04 06:22     00 13 03.808028 -30 56 16.26050
 2018-Sep-04 06:23     00 13 03.843502 -30 56 16.56420
 2018-Sep-04 06:24     00 13 03.878887 -30 56 16.86776
 2018-Sep-04 06:25     00 13 03.914184 -30 56 17.17119
 2018-Sep-04 06:26     00 13 03.949393 -30 56 17.47447
 2018-Sep-04 06:27     00 13 03.984513 -30 56 17.77761
 2018-Sep-04 06:28     00 13 04.019545 -30 56 18.08060
 2018-Sep-04 06:29     00 13 04.054489 -30 56 18.38344
 2018-Sep-04 06:30     00 13 04.089345 -30 56 18.68613
 2018-Sep-04 06:31     00 13 04.124113 -30 56 18.98867
 2018-Sep-04 06:32     00 13 04.158793 -30 56 19.29105
 2018-Sep-04 06:33     00 13 04.193386 -30 56 19.59327
 2018-Sep-04 06:34     00 13 04.227890 -30 56 19.89533
 2018-Sep-04 06:35     00 13 04.262307 -30 56 20.19722
 2018-Sep-04 06:36     00 13 04.296636 -30 56 20.49895
 2018-Sep-04 06:37     00 13 04.330878 -30 56 20.80051
 2018-Sep-04 06:38     00 13 04.365033 -30 56 21.10190
 2018-Sep-04 06:39     00 13 04.399100 -30 56 21.40312
 2018-Sep-04 06:40     00 13 04.433081 -30 56 21.70416
 2018-Sep-04 06:41     00 13 04.466974 -30 56 22.00502
 2018-Sep-04 06:42     00 13 04.500780 -30 56 22.30571
 2018-Sep-04 06:43     00 13 04.534499 -30 56 22.60620
 2018-Sep-04 06:44     00 13 04.568132 -30 56 22.90652
 2018-Sep-04 06:45     00 13 04.601678 -30 56 23.20664
 2018-Sep-04 06:46     00 13 04.635137 -30 56 23.50658
